[{"OBJECT_NAME":"FLOCK 4G-24","OBJECT_ID":"2025-009AE","EPOCH":"2026-03-09T17:24:07.838208","MEAN_MOTION":15.27784978,"ECCENTRICITY":0.0001802,"INCLINATION":97.4061,"RA_OF_ASC_NODE":151.514,"ARG_OF_PERICENTER":280.2808,"MEAN_ANOMALY":79.8228,"EPHEMERIS_TYPE":0,"CLASSIFICATION_TYPE":"U","NORAD_CAT_ID":62637,"ELEMENT_SET_NO":999,"REV_AT_EPOCH":6373,"BSTAR":0.00038996067,"MEAN_MOTION_DOT":0.00010513,"MEAN_MOTION_DDOT":0},{"OBJECT_NAME":"STARLINK-34041","OBJECT_ID":"2025-093J","EPOCH":"2026-03-09T01:37:41.680128","MEAN_MOTION":15.275951,"ECCENTRICITY":0.00013667,"INCLINATION":42.9984,"RA_OF_ASC_NODE":81.709,"ARG_OF_PERICENTER":276.6515,"MEAN_ANOMALY":83.4181,"EPHEMERIS_TYPE":0,"CLASSIFICATION_TYPE":"U","NORAD_CAT_ID":63844,"ELEMENT_SET_NO":999,"REV_AT_EPOCH":4787,"BSTAR":0.0011342279,"MEAN_MOTION_DOT":0.00031096,"MEAN_MOTION_DDOT":0}]
